ONEWEB-0228             
1 48780U 21045P   24052.93902843  .00000139  00000+0  33636-3 0  9996
2 48780  87.8939  67.6105 0001993  88.7310 271.4049 13.15548202133068
